ONEWEB-0228             
1 48780U 21045P   24256.86615872  .00000043  00000+0  79424-4 0  9997
2 48780  87.9083  26.9977 0001672 102.8281 257.3036 13.15550144161005
